HAWK-A                  
1 43765U 18099H   26068.67628545  .00008617  00000+0  36104-3 0  9995
2 43765  97.4051 122.2425 0034260 275.5523  84.1807 15.23231043397949
STARLINK-31553          
1 59363U 24060R   26068.56793379  .00000087  00000+0  12696-4 0  9991
2 59363  43.0043 253.6587 0001887 285.2179  74.8464 15.27570853110127
